INTELSAT 701 (IS-701)   
1 22871U 93066A   18231.58591119 -.00000018  00000-0  00000-0 0  9998
2 22871   5.0067  65.0153 0000826  71.7551 241.0792  0.99323481 90702
INTELSAT 26 (IS-26)     
1 24732U 97007A   18232.09442353 -.00000030  00000-0  00000+0 0  9990
2 24732   8.0940  47.0864 0002234  90.6078 290.4751  1.00273629 78622
GALAXY 25 (G-25)        
1 24812U 97026A   18231.34848601 -.00000182  00000-0  00000-0 0  9992
2 24812   0.3966  95.3417 0003410  59.5569 205.1071  1.00271548 77704
INTELSAT 5 (IS-5)       
1 24916U 97046A   18230.66457058  .00000071  00000-0  00000+0 0  9990
2 24916   4.3750  69.0102 0002943  45.7236 314.4831  1.00273474 76944
INTELSAT 805 (IS-805)   
1 25371U 98037A   18231.82795068 -.00000049  00000-0  00000+0 0  9998
2 25371   0.9335  92.7794 0003433  60.5647 281.8777  1.00275907 73909
AFRISTAR                
1 25515U 98063A   18232.08901491  .00000006  00000-0  00000+0 0  9997
2 25515   4.1614  67.1373 0001767  60.2620 271.1614  0.99006483 72437
INTELSAT 8 (IS-8)       
1 25522U 98065A   18231.42736366 -.00000221  00000-0  00000-0 0  9992
2 25522   1.9751  86.5027 0292064 229.7476 123.4148  0.95186878 17596
GALAXY 11 (G-11)        
1 26038U 99071A   18232.09032345  .00000119  00000-0  00000+0 0  9997
2 26038   0.0520 103.2686 0000290 121.2715 181.2377  1.00272558 68423
SIRIUS-1                
1 26390U 00035A   18230.97970601  .00000065  00000-0  00000-0 0  9992
2 26390  59.4503 217.4931 0004683 259.1911 290.6991  1.57877094 26758
INTELSAT 9 (IS-9)       
1 26451U 00043A   18231.21982440 -.00000014  00000-0  00000+0 0  9995
2 26451   4.3639  69.2278 0004666  78.3494 258.7551  1.00364121 66177
INTELSAT 12 (IS-12)     
1 26590U 00068A   18231.51608253  .00000116  00000-0  00000-0 0  9999
2 26590   1.4045  90.2742 0003724  16.3450  91.9731  1.00274815 23055
INTELSAT 1R (IS-1R)     
1 26608U 00072A   18231.61131769 -.00000157  00000-0  00000-0 0  9994
2 26608   1.2133  92.0242 0000923  25.4576 227.5892  1.00271662 12650
INTELSAT 10 (IS-10)     
1 26766U 01019A   18232.16264194  .00000106  00000-0  00000+0 0  9993
2 26766   2.4206  83.0796 0002331  10.3935 341.0237  1.00274112 63272
INTELSAT 901 (IS-901)   
1 26824U 01024A   18231.78834560 -.00000232  00000-0  00000+0 0  9992
2 26824   0.3791  94.8240 0002523  58.8864  68.6518  1.00273270 62938
INTELSAT 902 (IS-902)   
1 26900U 01039A   18232.16552073  .00000014  00000-0  00000+0 0  9999
2 26900   0.0229 103.6015 0002870  49.0674 297.3599  1.00272441 62110
DIRECTV 4S              
1 26985U 01052A   18231.63044874 -.00000132  00000-0  00000+0 0  9995
2 26985   0.0092 162.7294 0002741 331.8836 319.0569  1.00272264 61330
INTELSAT 904 (IS-904)   
1 27380U 02007A   18231.96296371  .00000118  00000-0  00000+0 0  9996
2 27380   0.0152 161.9059 0002796 340.8872 217.2157  1.00271807 60431
INTELSAT 903 (IS-903)   
1 27403U 02016A   18231.42902115 -.00000244  00000-0  00000+0 0  9994
2 27403   0.7638  93.9601 0002809  30.8655 325.8404  1.00271713 59985
DIRECTV 5 (TEMPO 1)     
1 27426U 02023A   18231.39569546 -.00000075  00000-0  00000-0 0  9993
2 27426   0.0120 124.8313 0003509  25.5380 209.6394  1.00273064 59660
INTELSAT 905 (IS-905)   
1 27438U 02027A   18232.08290876 -.00000203  00000-0  00000+0 0  9996
2 27438   0.0247 202.3801 0002619 285.9669 205.3565  1.00272060 59309
GALAXY 3C (G-3C)        
1 27445U 02030A   18231.35385465 -.00000170  00000-0  00000+0 0  9999
2 27445   0.0016  62.7986 0001739 272.2261  24.9554  1.00270996 59299
INTELSAT 906 (IS-906)   
1 27513U 02041A   18231.88873035 -.00000004  00000-0  00000+0 0  9996
2 27513   0.0267 214.4615 0002668 322.7648 175.0310  1.00272520 58304
INTELSAT 907 (IS-907)   
1 27683U 03007A   18231.16684368 -.00000222  00000-0  00000+0 0  9999
2 27683   0.0169 167.2470 0002987 332.0924 220.6714  1.00272289 56723
GALAXY 12 (G-12)        
1 27715U 03013B   18232.24420486  .00000040  00000-0  00000+0 0  9998
2 27715   0.0453 284.1404 0002486 243.0545 120.2307  1.00272713 56348
GALAXY 23 (G-23)        
1 27854U 03034A   18232.21319361 -.00000005  00000-0  00000+0 0  9993
2 27854   0.0062 140.5591 0002910  11.5582 132.1318  1.00271146 59886
GALAXY 13 (HORIZONS-1)  
1 27954U 03044A   18232.20540630  .00000030  00000-0  00000+0 0  9996
2 27954   0.0227 109.6376 0000362  70.7006  95.0663  1.00270183 54508
DIRECTV 7S              
1 28238U 04016A   18231.70465674 -.00000018  00000-0  00000+0 0  9997
2 28238   0.0462 282.9727 0002976 221.6974 317.9155  1.00272769 52405
INTELSAT 10-02          
1 28358U 04022A   18232.08116368 -.00000029  00000-0  00000+0 0  9994
2 28358   0.0120 153.6677 0000610 295.9196 267.0096  1.00274093 51972
XM-3 (RHYTHM)           
1 28626U 05008A   18232.06444701 -.00000224  00000-0  00000+0 0  9997
2 28626   0.0014  55.8386 0000213  96.7409 113.8477  1.00272768 49408
SPACEWAY 1              
1 28644U 05015A   18231.98776672 -.00000057  00000-0  00000+0 0  9994
2 28644   0.0272 212.9855 0000206  34.4253 326.9405  1.00127435 48855
DIRECTV 8               
1 28659U 05019A   18231.37004982 -.00000134  00000-0  00000+0 0  9991
2 28659   0.0200 111.6526 0003097  33.1939 215.1740  1.00270483 48527
GALAXY 28 (G-28)        
1 28702U 05022A   18231.48930111 -.00000204  00000-0  00000-0 0  9997
2 28702   0.0107 138.9311 0000425  23.0786 252.9104  1.00272422 23459
GALAXY 14 (G-14)        
1 28790U 05030A   18231.64013712  .00000018  00000-0  00000-0 0  9992
2 28790   0.0576 283.4362 0002703 223.6017 286.3498  1.00274334 47642
GALAXY 15 (G-15)        
1 28884U 05041A   18232.19626744  .00000060  00000-0  00000+0 0  9990
2 28884   0.0655 279.7435 0001586 233.9855 112.4001  1.00272712 46966
SPACEWAY 2              
1 28903U 05046B   18231.48729469 -.00000146  00000-0  00000+0 0  9992
2 28903   0.0055  83.3366 0000113  28.9989 291.7892  1.00273784 46834
GALAXY 16 (G-16)        
1 29236U 06023A   18231.48729469 -.00000146  00000-0  00000+0 0  9998
2 29236   0.0395 284.6809 0003053 222.7186 256.7839  1.00272637 44609
DIRECTV 9S              
1 29494U 06043A   18231.48685851 -.00000133  00000-0  00000+0 0  9998
2 29494   0.0165 142.1354 0003359   6.6068 253.2015  1.00272577 43442
XM-4 (BLUES)            
1 29520U 06049A   18231.39667630 -.00000042  00000-0  00000+0 0  9998
2 29520   0.0483 284.4692 0000063  17.5069  53.2099  1.00272567 43338
GALAXY 17 (G-17)        
1 31307U 07016B   18231.48886493 -.00000193  00000-0  00000-0 0  9997
2 31307   0.0382 328.5888 0003574 179.0535 265.1254  1.00271557 41288
DIRECTV 10              
1 31862U 07032A   18231.37551860 -.00000122  00000-0  00000+0 0  9997
2 31862   0.0487 283.0094 0000213 284.2099 152.7682  1.00272883 40744
SPACEWAY 3              
1 32018U 07036A   18231.48807983 -.00000170  00000-0  00000+0 0  9990
2 32018   0.0091 249.2096 0000302 200.6533 318.6519  1.00271804 40462
INTELSAT 11 (IS-11)     
1 32253U 07044B   18232.07278904 -.00000287  00000-0  00000+0 0  9990
2 32253   0.0659 260.0129 0001605 259.3599 152.1947  1.00270989 39862
HORIZONS-2              
1 32388U 07063B   18231.81111417 -.00000201  00000-0  00000+0 0  9992
2 32388   0.0159  97.3243 0003105  40.5144 207.0961  1.00272536 39223
DIRECTV 11              
1 32729U 08013A   18232.10707067 -.00000144  00000-0  00000+0 0  9998
2 32729   0.0031  85.2139 0000205  40.9061 141.6102  1.00272502 38278
GALAXY 18 (G-18)        
1 32951U 08024A   18231.43137814  .00000006  00000-0  00000-0 0  9996
2 32951   0.0152 113.7487 0003348  40.2501 206.0068  1.00272177 17233
INTELSAT 25 (IS-25)     
1 33153U 08034A   18231.17783922 -.00000243  00000-0  00000+0 0  9993
2 33153   0.0139 138.5083 0001248  41.8077 179.6724  1.00271757 36971
GALAXY 19 (G-19)        
1 33376U 08045A   18231.35936651 -.00000158  00000-0  00000+0 0  9996
2 33376   0.0097 120.1848 0003274  32.2606 207.5607  1.00272490 36178
SIRIUS FM-5             
1 35493U 09034A   18231.63315306 -.00000219  00000-0  00000+0 0  9994
2 35493   0.0117 109.2079 0000560 338.4714  22.0379  1.00270832 33310
INTELSAT 14 (IS-14)     
1 36097U 09064A   18231.21527539 -.00000293  00000-0  00000-0 0  9998
2 36097   0.0128 131.7668 0002491  13.4563 214.7818  1.00271891 32036
INTELSAT 15 (IS-15)     
1 36106U 09067A   18231.52402098 -.00000205  00000-0  00000-0 0  9991
2 36106   0.0122  97.8525 0002294  47.4526  96.3014  1.00272519 12647
DIRECTV 12              
1 36131U 09075A   18231.98907528 -.00000122  00000-0  00000+0 0  9993
2 36131   0.0421 278.2861 0000040 191.5676 111.6745  1.00272290 31727
INTELSAT 16 (IS-16)     
1 36397U 10006A   18231.49183096 -.00000263  00000-0  00000-0 0  9992
2 36397   0.0163 112.3923 0002258  32.7888 283.4499  1.00272400 31193
XM-5                    
1 37185U 10053A   18231.49008625 -.00000224  00000-0  00000+0 0  9990
2 37185   0.0160 115.3842 0002056  10.8932 292.7152  1.00272990 28786
INTELSAT 17 (IS-17)     
1 37238U 10065B   18232.16630586 -.00000020  00000-0  00000+0 0  9998
2 37238   0.0166 130.4486 0002290  27.6515 296.2140  1.00272929 28267
INTELSAT NEW DAWN       
1 37392U 11016A   18231.22645432  .00000136  00000-0  00000-0 0  9996
2 37392   0.0471 261.9301 0000858 163.6835  16.2129  1.00272851 24635
INTELSAT 18 (IS-18)     
1 37834U 11056A   18231.83013157  .00000034  00000-0  00000+0 0  9997
2 37834   0.0149 109.5519 0002012  32.4831 304.8972  1.00272210 25192
INTELSAT 22 (IS-22)     
1 38098U 12011A   18231.88817209 -.00000077  00000-0  00000+0 0  9995
2 38098   0.0107  97.9799 0002559  59.5655 202.4551  1.00271332 23399
INTELSAT 19 (IS-19)     
1 38356U 12030A   18231.62805178 -.00000076  00000-0  00000+0 0  9996
2 38356   0.0404 293.3500 0003012 212.7628 213.8955  1.00272050 22858
INTELSAT 20 (IS-20)     
1 38740U 12043A   18230.90078962 -.00000045  00000-0  00000-0 0  9997
2 38740   0.0160 129.8493 0002038  60.0881 170.0469  1.00271831 22085
INTELSAT 21 (IS-21)     
1 38749U 12045A   18231.25128754 -.00000304  00000-0  00000-0 0  9990
2 38749   0.0119  98.2000 0002114  40.6678 221.1368  1.00272468 21873
INTELSAT 23 (IS-23)     
1 38867U 12057A   18231.23740339 -.00000304  00000-0  00000+0 0  9990
2 38867   0.0127 150.2300 0001903 347.6752 222.0980  1.00272679 21440
SIRIUS FM-6             
1 39360U 13058A   18231.41230856 -.00000036  00000-0  00000-0 0  9992
2 39360   0.0052 108.3117 0000235 278.0485 333.6297  1.00273633 17506
INTELSAT 30 (IS-30)     
1 40271U 14062A   18231.48807983 -.00000170  00000-0  00000-0 0  9998
2 40271   0.0179 110.0714 0002248 337.8898 320.4671  1.00272444 14012
INTELSAT 34 (IS-34)     
1 40874U 15039A   18231.24437611 -.00000305  00000-0  00000-0 0  9993
2 40874   0.0168 115.0853 0000630 294.4571 310.4632  1.00269367 11009
INTELSAT 29E (IS-29E)   
1 41308U 16004A   18231.22911885 -.00000302  00000-0  00000+0 0  9993
2 41308   0.0583 271.3351 0001670 232.5645 216.1002  1.00270483  9496
INTELSAT 31 (IS-31)     
1 41581U 16035A   18231.35385200 -.00000170  00000-0  00000-0 0  9994
2 41581   0.0383 265.3574 0001532 325.0440 129.5737  1.00271441  7995
INTELSAT 36 (IS-36)     
1 41747U 16053A   18231.89811964 -.00000043  00000-0  00000+0 0  9996
2 41747   0.0142  61.6652 0002599 311.2754 347.0551  1.00273161  7313
INTELSAT 33E (IS-33E)   
1 41748U 16053B   18231.92167834  .00000030  00000-0  00000+0 0  9996
2 41748   0.0178  56.2064 0002818 100.6063 203.1894  1.00271566  7563
INTELSAT 32E (IS-32E)   
1 41945U 17007B   18231.21019583 -.00000289  00000-0  00000+0 0  9991
2 41945   0.0157 111.7076 0000863 299.2293 309.0592  1.00271644  5585
INTELSAT 35E (IS-35E)   
1 42818U 17041A   18231.18616249 -.00000257  00000-0  00000-0 0  9993
2 42818   0.0313 228.7596 0001446 277.0411 214.1970  1.00271214  4206
INTELSAT 37E (IS-37E)   
1 42950U 17059A   18231.14051487 -.00000160  00000-0  00000-0 0  9995
2 42950   0.0102 119.1276 0002617  26.0372 214.8408  1.00271711  3390